{
    "links": {
        "self": "http://www.neowsapp.com/rest/v1/neo/3612164?api_key=iIulBulltgU6a56xZRHN4H3l9WmuAYTsLGpBGhQ2"
    },
    "id": "3612164",
    "neo_reference_id": "3612164",
    "name": "(2012 TA259)",
    "designation": "2012 TA259",
    "nasa_jpl_url": "http://ssd.jpl.nasa.gov/sbdb.cgi?sstr=3612164",
    "absolute_magnitude_h": 20.3,
    "estimated_diameter": {
        "kilometers": {
            "estimated_diameter_min": 0.2315021222,
            "estimated_diameter_max": 0.5176544822
        },
        "meters": {
            "estimated_diameter_min": 231.5021222103,
            "estimated_diameter_max": 517.6544821978
        },
        "miles": {
            "estimated_diameter_min": 0.1438487052,
            "estimated_diameter_max": 0.3216554833
        },
        "feet": {
            "estimated_diameter_min": 759.5214226325,
            "estimated_diameter_max": 1698.3415313737
        }
    },
    "is_potentially_hazardous_asteroid": false,
    "close_approach_data": [
        {
            "close_approach_date": "2012-11-05",
            "close_approach_date_full": "2012-Nov-05 07:12",
            "epoch_date_close_approach": 1352099520000,
            "relative_velocity": {
                "kilometers_per_second": "20.3390486089",
                "kilometers_per_hour": "73220.5749921912",
                "miles_per_hour": "45496.4178333424"
            },
            "miss_distance": {
                "astronomical": "0.1955881471",
                "lunar": "76.0837892219",
                "kilometers": "29259570.203406677",
                "miles": "18181053.8577270626"
            },
            "orbiting_body": "Earth"
        },
        {
            "close_approach_date": "2167-11-16",
            "close_approach_date_full": "2167-Nov-16 07:29",
            "epoch_date_close_approach": 6244327740000,
            "relative_velocity": {
                "kilometers_per_second": "17.4333341005",
                "kilometers_per_hour": "62760.0027618238",
                "miles_per_hour": "38996.6250494232"
            },
            "miss_distance": {
                "astronomical": "0.2574849985",
                "lunar": "100.1616644165",
                "kilometers": "38519207.332553195",
                "miles": "23934725.568476291"
            },
            "orbiting_body": "Earth"
        }
    ],
    "orbital_data": {
        "orbit_id": "10",
        "orbit_determination_date": "2017-04-06 08:48:31",
        "first_observation_date": "2012-10-14",
        "last_observation_date": "2012-11-07",
        "data_arc_in_days": 24,
        "observations_used": 51,
        "orbit_uncertainty": "7",
        "minimum_orbit_intersection": ".170464",
        "jupiter_tisserand_invariant": "3.560",
        "epoch_osculation": "2459000.5",
        "eccentricity": ".7411690462338798",
        "semi_major_axis": "1.88143318054701",
        "inclination": "10.312811865",
        "ascending_node_longitude": "144.4668022548334",
        "orbital_period": "942.6090935814012",
        "perihelion_distance": ".4869731445682077",
        "perihelion_argument": "354.3669940192842",
        "aphelion_distance": "3.275893216525813",
        "perihelion_time": "2459111.419866056771",
        "mean_anomaly": "317.6376336146716",
        "mean_motion": ".3819186579584078",
        "equinox": "J2000",
        "orbit_class": {
            "orbit_class_type": "APO",
            "orbit_class_description": "Near-Earth asteroid orbits which cross the Earth’s orbit similar to that of 1862 Apollo",
            "orbit_class_range": "a (semi-major axis) > 1.0 AU; q (perihelion) < 1.017 AU"
        }
    },
    "is_sentry_object": false
}